[{"OBJECT_NAME":"CELESTIS-17 & SHERPA-FX1","OBJECT_ID":"2021-006CB","EPOCH":"2026-03-09T15:26:05.078112","MEAN_MOTION":15.30994801,"ECCENTRICITY":0.000663,"INCLINATION":97.2397,"RA_OF_ASC_NODE":112.1052,"ARG_OF_PERICENTER":178.1385,"MEAN_ANOMALY":181.9882,"EPHEMERIS_TYPE":0,"CLASSIFICATION_TYPE":"U","NORAD_CAT_ID":47486,"ELEMENT_SET_NO":999,"REV_AT_EPOCH":28406,"BSTAR":0.00024301,"MEAN_MOTION_DOT":7.207e-5,"MEAN_MOTION_DDOT":0},{"OBJECT_NAME":"STARLINK-34907","OBJECT_ID":"2025-176R","EPOCH":"2026-03-09T12:26:10.412448","MEAN_MOTION":15.30192945,"ECCENTRICITY":9.626e-5,"INCLINATION":53.1578,"RA_OF_ASC_NODE":153.5626,"ARG_OF_PERICENTER":85.5613,"MEAN_ANOMALY":274.5498,"EPHEMERIS_TYPE":0,"CLASSIFICATION_TYPE":"U","NORAD_CAT_ID":65213,"ELEMENT_SET_NO":999,"REV_AT_EPOCH":3309,"BSTAR":0.0011126903,"MEAN_MOTION_DOT":0.00032734,"MEAN_MOTION_DDOT":0}]
